{
  "type": "FeatureCollection",
  "features": [
    {
      "type": "Feature",
      "properties": {
        "norad_id": 30996,
        "name": "FENGYUN 1C DEB",
        "group": "fengyun-1c-debris",
        "lat": 5.570104171635491,
        "lon": 73.3095989830784,
        "alt_km": 791.1773559870444,
        "timestamp": "2025-12-13T10:41:26.046116+00:00",
        "meta_object_name": "FENGYUN 1C DEB",
        "meta_object_id": "1999-025BCN",
        "meta_epoch": "2025-12-12T17:16:21.469152",
        "meta_mean_motion": 14.35413045,
        "meta_eccentricity": 0.0050141,
        "meta_inclination": 98.9431,
        "meta_ra_of_asc_node": 251.6778,
        "meta_arg_of_pericenter": 291.9416,
        "meta_mean_anomaly": 94.6519,
        "meta_ephemeris_type": 0,
        "meta_classification_type": "U",
        "meta_norad_cat_id": 30996,
        "meta_element_set_no": 999,
        "meta_rev_at_epoch": 97563,
        "meta_bstar": 0.0015977335,
        "meta_mean_motion_dot": 4.609e-05,
        "meta_mean_motion_ddot": 0,
        "tle_line1": "1 30996U 99025BCN 25346.71969293  .00004609  00000+0  15977-2 0  9997",
        "tle_line2": "2 30996  98.9431 251.6778 0050141 291.9416  94.6519 14.35413045975636"
      },
      "geometry": {
        "type": "Point",
        "coordinates": [
          73.3095989830784,
          5.570104171635491
        ]
      }
    },
    {
      "type": "Feature",
      "properties": {
        "norad_id": 30998,
        "name": "FENGYUN 1C DEB",
        "group": "fengyun-1c-debris",
        "lat": -39.78821927101421,
        "lon": -116.479059049588,
        "alt_km": 731.0051483099687,
        "timestamp": "2025-12-13T10:41:26.046127+00:00",
        "meta_object_name": "FENGYUN 1C DEB",
        "meta_object_id": "1999-025BCQ",
        "meta_epoch": "2025-12-11T04:53:54.665088",
        "meta_mean_motion": 14.47854327,
        "meta_eccentricity": 0.0012798,
        "meta_inclination": 98.8279,
        "meta_ra_of_asc_node": 68.6185,
        "meta_arg_of_pericenter": 197.4011,
        "meta_mean_anomaly": 226.8043,
        "meta_ephemeris_type": 0,
        "meta_classification_type": "U",
        "meta_norad_cat_id": 30998,
        "meta_element_set_no": 999,
        "meta_rev_at_epoch": 97168,
        "meta_bstar": 0.0039197871,
        "meta_mean_motion_dot": 0.00014509,
        "meta_mean_motion_ddot": 0,
        "tle_line1": "1 30998U 99025BCQ 25345.20410492  .00014509  00000+0  39198-2 0  9995",
        "tle_line2": "2 30998  98.8279  68.6185 0012798 197.4011 226.8043 14.47854327971689"
      },
      "geometry": {
        "type": "Point",
        "coordinates": [
          -116.479059049588,
          -39.78821927101421
        ]
      }
    },
    {
      "type": "Feature",
      "properties": {
        "norad_id": 30999,
        "name": "FENGYUN 1C DEB",
        "group": "fengyun-1c-debris",
        "lat": 2.184612506034723,
        "lon": 160.89314053480717,
        "alt_km": 629.1620905871041,
        "timestamp": "2025-12-13T10:41:26.046138+00:00",
        "meta_object_name": "FENGYUN 1C DEB",
        "meta_object_id": "1999-025BCR",
        "meta_epoch": "2025-12-12T18:12:54.722016",
        "meta_mean_motion": 14.58418571,
        "meta_eccentricity": 0.01130412,
        "meta_inclination": 99.0911,
        "meta_ra_of_asc_node": 160.4928,
        "meta_arg_of_pericenter": 337.8982,
        "meta_mean_anomaly": 21.7361,
        "meta_ephemeris_type": 0,
        "meta_classification_type": "U",
        "meta_norad_cat_id": 30999,
        "meta_element_set_no": 999,
        "meta_rev_at_epoch": 98831,
        "meta_bstar": 0.000881603,
        "meta_mean_motion_dot": 4.405e-05,
        "meta_mean_motion_ddot": 0,
        "tle_line1": "1 30999U 99025BCR 25346.75896669  .00004405  00000+0  88160-3 0  9999",
        "tle_line2": "2 30999  99.0911 160.4928 0113041 337.8982  21.7361 14.58418571988314"
      },
      "geometry": {
        "type": "Point",
        "coordinates": [
          160.89314053480717,
          2.184612506034723
        ]
      }
    },
    {
      "type": "Feature",
      "properties": {
        "norad_id": 31000,
        "name": "FENGYUN 1C DEB",
        "group": "fengyun-1c-debris",
        "lat": -57.48503129895756,
        "lon": -176.05329414266998,
        "alt_km": 986.8286079216496,
        "timestamp": "2025-12-13T10:41:26.046148+00:00",
        "meta_object_name": "FENGYUN 1C DEB",
        "meta_object_id": "1999-025BCS",
        "meta_epoch": "2025-12-11T01:29:11.151168",
        "meta_mean_motion": 14.09635849,
        "meta_eccentricity": 0.01654898,
        "meta_inclination": 97.5668,
        "meta_ra_of_asc_node": 13.9766,
        "meta_arg_of_pericenter": 71.124,
        "meta_mean_anomaly": 318.282,
        "meta_ephemeris_type": 0,
        "meta_classification_type": "U",
        "meta_norad_cat_id": 31000,
        "meta_element_set_no": 999,
        "meta_rev_at_epoch": 69933,
        "meta_bstar": 0.00068975329,
        "meta_mean_motion_dot": 1.34e-05,
        "meta_mean_motion_ddot": 0,
        "tle_line1": "1 31000U 99025BCS 25345.06193462  .00001340  00000+0  68975-3 0  9994",
        "tle_line2": "2 31000  97.5668  13.9766 0165489  71.1240 318.2820 14.09635849699330"
      },
      "geometry": {
        "type": "Point",
        "coordinates": [
          -176.05329414266998,
          -57.48503129895756
        ]
      }
    },
    {
      "type": "Feature",
      "properties": {
        "norad_id": 31001,
        "name": "FENGYUN 1C DEB",
        "group": "fengyun-1c-debris",
        "lat": 80.56747677620527,
        "lon": 140.87604327579268,
        "alt_km": 691.4971533686994,
        "timestamp": "2025-12-13T10:41:26.046159+00:00",
        "meta_object_name": "FENGYUN 1C DEB",
        "meta_object_id": "1999-025BCT",
        "meta_epoch": "2025-12-12T02:39:27.878112",
        "meta_mean_motion": 14.42858877,
        "meta_eccentricity": 0.01468358,
        "meta_inclination": 99.2719,
        "meta_ra_of_asc_node": 218.9415,
        "meta_arg_of_pericenter": 154.3626,
        "meta_mean_anomaly": 206.4937,
        "meta_ephemeris_type": 0,
        "meta_classification_type": "U",
        "meta_norad_cat_id": 31001,
        "meta_element_set_no": 999,
        "meta_rev_at_epoch": 98197,
        "meta_bstar": 0.00062559391,
        "meta_mean_motion_dot": 2.323e-05,
        "meta_mean_motion_ddot": 0,
        "tle_line1": "1 31001U 99025BCT 25346.11073933  .00002323  00000+0  62559-3 0  9996",
        "tle_line2": "2 31001  99.2719 218.9415 0146835 154.3626 206.4937 14.42858877981977"
      },
      "geometry": {
        "type": "Point",
        "coordinates": [
          140.87604327579268,
          80.56747677620527
        ]
      }
    },
    {
      "type": "Feature",
      "properties": {
        "norad_id": 31002,
        "name": "FENGYUN 1C DEB",
        "group": "fengyun-1c-debris",
        "lat": 22.648651380769873,
        "lon": -4.359379295261985,
        "alt_km": 838.6233429256772,
        "timestamp": "2025-12-13T10:41:26.046170+00:00",
        "meta_object_name": "FENGYUN 1C DEB",
        "meta_object_id": "1999-025BCU",
        "meta_epoch": "2025-12-13T00:24:44.192160",
        "meta_mean_motion": 13.99203554,
        "meta_eccentricity": 0.00989474,
        "meta_inclination": 98.8859,
        "meta_ra_of_asc_node": 358.9679,
        "meta_arg_of_pericenter": 346.8641,
        "meta_mean_anomaly": 39.467,
        "meta_ephemeris_type": 0,
        "meta_classification_type": "U",
        "meta_norad_cat_id": 31002,
        "meta_element_set_no": 999,
        "meta_rev_at_epoch": 95609,
        "meta_bstar": 0.00040018768,
        "meta_mean_motion_dot": 5.62e-06,
        "meta_mean_motion_ddot": 0,
        "tle_line1": "1 31002U 99025BCU 25347.01717815  .00000562  00000+0  40019-3 0  9991",
        "tle_line2": "2 31002  98.8859 358.9679 0098947 346.8641  39.4670 13.99203554956090"
      },
      "geometry": {
        "type": "Point",
        "coordinates": [
          -4.359379295261985,
          22.648651380769873
        ]
      }
    },
    {
      "type": "Feature",
      "properties": {
        "norad_id": 31003,
        "name": "FENGYUN 1C DEB",
        "group": "fengyun-1c-debris",
        "lat": 77.96380055570607,
        "lon": 17.346831150875584,
        "alt_km": 821.4446996359065,
        "timestamp": "2025-12-13T10:41:26.046180+00:00",
        "meta_object_name": "FENGYUN 1C DEB",
        "meta_object_id": "1999-025BCV",
        "meta_epoch": "2025-12-12T15:45:51.795072",
        "meta_mean_motion": 14.2469588,
        "meta_eccentricity": 0.00416344,
        "meta_inclination": 98.8428,
        "meta_ra_of_asc_node": 63.4489,
        "meta_arg_of_pericenter": 214.3948,
        "meta_mean_anomaly": 145.4534,
        "meta_ephemeris_type": 0,
        "meta_classification_type": "U",
        "meta_norad_cat_id": 31003,
        "meta_element_set_no": 999,
        "meta_rev_at_epoch": 96508,
        "meta_bstar": 0.0022103644,
        "meta_mean_motion_dot": 5.148e-05,
        "meta_mean_motion_ddot": 0,
        "tle_line1": "1 31003U 99025BCV 25346.65684948  .00005148  00000+0  22104-2 0  9990",
        "tle_line2": "2 31003  98.8428  63.4489 0041634 214.3948 145.4534 14.24695880965082"
      },
      "geometry": {
        "type": "Point",
        "coordinates": [
          17.346831150875584,
          77.96380055570607
        ]
      }
    }
  ]
}